ONEWEB-0685             
1 54679U 22166AP  24314.11069489  .00000077  00000+0  15543-3 0  9994
2 54679  87.9330   0.5319 0002060 100.4095 259.7271 13.21827128 94593
ONEWEB-0712             
1 54680U 22166AQ  24313.80742910  .00000068  00000+0  14527-3 0  9999
2 54680  87.9105 345.3869 0002456  90.6617 269.4796 13.16592363 95038
ONEWEB-0714             
1 54681U 22166AR  24313.88991582  .00000186  00000+0  41944-3 0  9993
2 54681  87.9334   0.5642 0002063 104.6357 255.5006 13.21827173 94218
ONEWEB-0532             
1 55140U 23004A   24314.17297464  .00000095  00000+0  21105-3 0  9993
2 55140  87.9071 122.4015 0001166 106.2850 253.8409 13.17647739 90547
ONEWEB-0533             
1 55141U 23004B   24313.49858776  .00000478  00000+0  12936-2 0  9993
2 55141  87.8856 107.2812 0001577  95.5415 264.5893 13.12443571 91233
ONEWEB-0541             
1 55142U 23004C   24314.52014198  .00000179  00000+0  46861-3 0  9994
2 55142  87.8880 137.5357 0001478  87.3035 272.8263 13.11416979 89329
ONEWEB-0543             
1 55143U 23004D   24314.15642063  .00000176  00000+0  41316-3 0  9999
2 55143  87.9077  91.9578 0001768  90.2317 269.9018 13.18690187 92595
ONEWEB-0544             
1 55144U 23004E   24314.15011361  .00000096  00000+0  21082-3 0  9990
2 55144  87.9078  91.9457 0001474  88.8078 271.3223 13.18688166 92593
